
STARLINK-32223          
1 60373U 24138U   25036.88366510 -.00004057  00000+0 -12484-3 0  9999
2 60373  53.1635 352.8166 0001456  94.1940 265.9227 15.30217234 29774
STARLINK-32180          
1 60374U 24138V   25037.34298191 -.00000006  00000+0  11940-4 0  9997
2 60374  53.1619 350.7026 0001331  91.2230 268.8923 15.30197813 29945
STARLINK-32281          
1 60375U 24138W   25036.59711230  .00000563  00000+0  31175-4 0  9997
2 60375  53.1606 353.8735 0001198  69.8697 290.2433 15.30134396 29540
STARLINK-32277          
1 60376U 24138X   25036.30424953  .00002752  00000+0  10490-3 0  9998
2 60376  53.1609 355.5957 0001045  88.4093 271.7027 15.30229474 29788
STARLINK-32269          
1 60377U 24138Y   25037.33348370  .00000380  00000+0  24946-4 0  9998
2 60377  53.1623 350.6419 0001293  89.1895 270.9254 15.30192445 29945
CYGNUS NG-21            
1 60378U 24139A   25037.55332977  .00016725  00000+0  30186-3 0  9992
2 60378  51.6346 234.0609 0003692 280.5478  79.5094 15.49858655 28762
QIANFAN-1               
1 60379U 24140A   25037.61643062  .00000221  00000+0  32437-3 0  9997
2 60379  88.9919 331.0982 0019100  32.7238 327.5092 13.50914242 25616
QIANFAN-2               
1 60380U 24140B   25037.57119081  .00000220  00000+0  32293-3 0  9992
2 60380  88.9905 330.9852 0013616   9.3572 350.7830 13.50918323 25661
QIANFAN-3               
1 60381U 24140C   25037.57934136  .00000225  00000+0  33015-3 0  9997
2 60381  88.9898 331.1396 0015144  20.3427 339.8324 13.50918614 25578
QIANFAN-4               
1 60382U 24140D   25037.55468857  .00000211  00000+0  30810-3 0  9993
2 60382  88.9923 330.9624 0013945  11.6764 348.4707 13.50919447 25692
QIANFAN-5               
1 60383U 24140E   25037.60412094  .00000207  00000+0  30171-3 0  9997
2 60383  88.9898 331.1633 0016701  29.9642 330.2461 13.50919237 25566
QIANFAN-6               
1 60384U 24140F   25037.55140562  .00000106  00000+0  14302-3 0  9996
2 60384  88.9925 330.8328 0014332  17.0362 343.1268 13.51742003 25755
QIANFAN-7               
1 60385U 24140G   25037.53975974  .00001604  00000+0  65033-3 0  9999
2 60385  88.9923 329.8658 0014921 346.9503  13.1303 14.27237443 26287
QIANFAN-8               
1 60386U 24140H   25037.55881759  .00000218  00000+0  31857-3 0  9996
2 60386  88.9926 331.0638 0017734  17.6250 342.5512 13.50918901 25606
QIANFAN-9               
1 60387U 24140J   25037.60826741  .00000214  00000+0  31249-3 0  9994
2 60387  88.9924 331.1401 0017377  17.1663 343.0072 13.50916335 25594
QIANFAN-10              
1 60388U 24140K   25037.52949499  .00000329  00000+0  36300-3 0  9992
2 60388  88.9930 330.5370 0015451   0.8787 359.2399 13.69467622 25677
QIANFAN-11              
1 60389U 24140L   25037.57530947  .00000223  00000+0  32642-3 0  9990
2 60389  88.9859 331.2786 0015423  17.7788 342.3899 13.50918868 25372
QIANFAN-12              
1 60390U 24140M   25037.59583541  .00000207  00000+0  30255-3 0  9992
2 60390  88.9903 331.1849 0014527  25.9602 334.2275 13.50918857 25504
QIANFAN-13              
1 60391U 24140N   25037.56704882  .00000222  00000+0  32591-3 0  9995
2 60391  88.9915 331.2494 0014419  28.5012 331.6924 13.50919066 25526
QIANFAN-14              
1 60392U 24140P   25037.59174639  .00000224  00000+0  32865-3 0  9996
2 60392  88.9894 331.2108 0018085  26.9814 333.2273 13.50918658 25532
QIANFAN-15              
1 60393U 24140Q   25037.60004647  .00000203  00000+0  29543-3 0  9996
2 60393  88.9917 331.0933 0013458  16.3663 343.7919 13.50925484 25524
QIANFAN-16              
1 60394U 24140R   25037.58763239  .00000218  00000+0  31864-3 0  9998
2 60394  88.9920 331.2049 0016119  31.2515 328.9591 13.50918104 25430
QIANFAN-17              
1 60395U 24140S   25037.58348706  .00000215  00000+0  31430-3 0  9993
2 60395  88.9932 331.2166 0016329  25.4971 334.6982 13.50921981 26399
QIANFAN-18              
1 60396U 24140T   25037.56300636  .00000206  00000+0  30012-3 0  9997
2 60396  88.9924 330.7764 0015055   9.4210 350.7221 13.50916161 25783
STARLINK-11228 [DTC]    
1 60398U 24141A   25036.84480732  .00000503  00000+0  90155-5 0  9992
2 60398  53.1597 242.5861 0001174  92.6297 267.4855 15.69698129 29367
STARLINK-11182 [DTC]    
1 60399U 24141B   25037.53044939 -.00000305  00000+0  23376-5 0  9997
2 60399  53.1585 239.0358 0001042  76.9863 283.1271 15.69708080 29528
STARLINK-11234 [DTC]    
1 60400U 24141C   25035.99747807  .00000094  00000+0  56310-5 0  9990
2 60400  53.1582 246.5341 0000967  68.7820 291.3301 15.69710830 29239
STARLINK-11232 [DTC]    
1 60401U 24141D   25036.94761248 -.00002123  00000+0 -12688-4 0  9998
2 60401  53.1579 241.7917 0000288 344.7127  15.3882 15.69699083 29408
STARLINK-11139 [DTC]    
1 60402U 24141E   25037.57940203 -.00000178  00000+0  33808-5 0  9994
2 60402  53.1585 238.6223 0000771  77.8951 282.2153 15.69708775 29536
STARLINK-11158 [DTC]    
1 60403U 24141F   25037.57459573  .00000025  00000+0  50742-5 0  9996
2 60403  53.1602 239.3233 0001546  90.6917 269.4278 15.69712900 29475
STARLINK-11199 [DTC]    
1 60404U 24141G   25036.29630880 -.00001475  00000+0 -73293-5 0  9995
2 60404  53.1584 245.5686 0000630  61.7687 298.3395 15.69707344 29323
STARLINK-11081 [DTC]    
1 60405U 24141H   25037.56478474  .00000082  00000+0  55287-5 0  9990
2 60405  53.1585 239.2590 0000707  79.2445 280.8652 15.69710565 29477
STARLINK-11150 [DTC]    
1 60406U 24141J   25036.85951930  .00001305  00000+0  15630-4 0  9991
2 60406  53.1594 242.6782 0000910  85.5226 274.5896 15.69703859 29414
STARLINK-11136 [DTC]    
1 60407U 24141K   25037.55497566  .00000188  00000+0  64134-5 0  9992
2 60407  53.1594 239.1922 0001215  81.4820 278.6336 15.69712071 29472
STARLINK-11196 [DTC]    
1 60408U 24141L   25036.84970963  .00003538  00000+0  34067-4 0  9994
2 60408  53.1591 242.6120 0001342 105.0880 255.0286 15.69695284 29412
STARLINK-11174 [DTC]    
1 60409U 24141M   25036.96723450 -.00002290  00000+0 -14044-4 0  9994
2 60409  53.1587 241.9177 0000924  96.3395 263.7728 15.69719118 29386
STARLINK-11191 [DTC]    
1 60410U 24141N   25036.83496576  .00003458  00000+0  33365-4 0  9990
2 60410  53.1601 242.5139 0001008  78.4310 281.6821 15.69728127 29419
STARLINK-32244          
1 60411U 24141P   25036.94135183  .00000867  00000+0  41412-4 0  9990
2 60411  53.1531 285.6560 0001015 127.8713 232.2380 15.30184733 28836
STARLINK-32186          
1 60412U 24141Q   25036.93819105  .00000232  00000+0  19963-4 0  9995
2 60412  53.1612 285.6388 0001172  83.9455 276.1679 15.30183854 28767
STARLINK-32178          
1 60413U 24141R   25036.92868727 -.00000060  00000+0  10092-4 0  9993
2 60413  53.1618 285.5758 0000985  83.2789 276.8324 15.30189498 28762
STARLINK-32234          
1 60414U 24141S   25036.93503471 -.00003254  00000+0 -97820-4 0  9990
2 60414  53.1626 285.6144 0001750 110.4435 249.6754 15.30181262 28827
STARLINK-32265          
1 60415U 24141T   25036.93185308 -.00000511  00000+0 -51323-5 0  9998
2 60415  53.1620 285.5929 0001075 107.5678 252.5441 15.30194917 28825
STARLINK-32197          
1 60416U 24141U   25036.93826891  .00001186  00000+0  52189-4 0  9995
2 60416  53.1596 275.6744 0001548  64.4077 295.7083 15.30188548 28916
STARLINK-32255          
1 60417U 24141V   25036.92234710  .00000418  00000+0  26233-4 0  9996
2 60417  53.1589 285.5402 0000975 101.2369 258.8741 15.30199016 28820
STARLINK-32236          
1 60418U 24141W   25036.39561171 -.00002752  00000+0 -80821-4 0  9990
2 60418  53.1591 287.9410 0000593  84.1128 275.9941 15.30203281 28751
CAPELLA-13 (ACADIA-3)   
1 60419U 24142A   25037.42045025  .00014231  00000+0  15720-2 0  9999
2 60419  53.0073  61.5382 0001254  85.5232 274.5891 14.87646477 26617
ASBM-2                  
1 60423U 24143B   25037.24049104 -.00000086  00000+0  00000+0 0  9993
2 60423  62.4412  64.4275 5385431 268.2983  32.4289  1.50424785  4144
STARLINK-32250          
1 60425U 24144A   25036.62949323  .00000452  00000+0  27402-4 0  9995
2 60425  53.1593 261.7092 0001659  79.7632 280.3556 15.30192837 28544
STARLINK-32226          
1 60426U 24144B   25036.88969517 -.00002089  00000+0 -58407-4 0  9990
2 60426  53.1597 260.4930 0001248  78.4313 281.6827 15.30212823 28387
STARLINK-32254          
1 60427U 24144C   25037.00766695 -.00000225  00000+0  45383-5 0  9997
2 60427  53.1584 259.8026 0001360  98.3604 261.7551 15.30188945 28617
STARLINK-32193          
1 60428U 24144D   25036.88759788  .00000566  00000+0  31269-4 0  9992
2 60428  53.1596 260.4781 0001454  75.3273 284.7889 15.30182326 28591
STARLINK-32242          
1 60429U 24144E   25036.88020624 -.00000346  00000+0  45301-6 0  9994
2 60429  53.1595 260.4314 0001310  79.0577 281.0571 15.30187699 28598
STARLINK-32196          
1 60430U 24144F   25037.00450356  .00000009  00000+0  12441-4 0  9992
2 60430  53.1602 259.7822 0001281  91.4249 268.6898 15.30188974 28573
STARLINK-32232          
1 60431U 24144G   25036.88442173  .00000796  00000+0  39001-4 0  9990
2 60431  53.1597 260.4569 0001121  84.4738 275.6390 15.30192508 28553
STARLINK-32246          
1 60432U 24144H   25036.93813087  .00000287  00000+0  21815-4 0  9992
2 60432  53.1612 260.0802 0001250  78.4980 281.6161 15.30189919 28514
STARLINK-32183          
1 60433U 24144J   25036.93602149  .00000825  00000+0  39988-4 0  9996
2 60433  53.1613 260.0670 0001194  82.1970 277.9167 15.30187914 28569
STARLINK-32233          
1 60434U 24144K   25036.92652869  .00003295  00000+0  12344-3 0  9990
2 60434  53.1596 260.0065 0001245  97.6283 262.4859 15.30168804 28501
STARLINK-32222          
1 60435U 24144L   25037.58283539 -.00000374  00000+0 -52764-6 0  9998
2 60435  53.1613 256.9897 0000281 114.8130 245.2900 15.30193932 28664
